SatCatId,ObjectName,LaunchYear,OrbitalPeriod,LaunchMass,StatusCode,Inclination,Status,UcsData,OrbitClassEstimated,LaunchSiteCountry,Owner,UseType,Purpose,LaunchVehicleClass,TLE1,TLE2,MeanMotion,Eccentricity,OrbitClass
61594,ONEWEB-0015,2024,109.8,-1.0,+,87.89,Active,0,LEO,USA,UK,Unknown,Unknown,Unknown,1 61594U 24188A   25165.55902837  .00000516  00000+0  14195-2 0  9999,2 61594  87.8869  94.3671 0001602  61.8973 298.2316 13.11419184 36278,13.11419184,0.0001602,LEO
61595,ONEWEB-0687,2024,108.22,-1.0,+,87.96,Active,0,LEO,USA,UK,Unknown,Unknown,Unknown,1 61595U 24188B   25165.91668981 -.00042215  00000+0 -89962-1 0  9996,2 61595  87.9589  79.0311 0003379 104.2453 319.6918 13.30685134 35803,13.30685134,0.0003379,LEO
61596,ONEWEB-0688,2024,108.22,-1.0,+,87.96,Active,0,LEO,USA,UK,Unknown,Unknown,Unknown,1 61596U 24188C   25165.47210148  .00002124  00000+0  44750-2 0  9996,2 61596  87.9602  79.1202 0001874  66.2095 293.9240 13.30675580 37456,13.3067558,0.0001874,LEO
61597,ONEWEB-0689,2024,109.8,-1.0,+,87.88,Active,0,LEO,USA,UK,Unknown,Unknown,Unknown,1 61597U 24188D   25165.51663223 -.00000446  00000+0 -12948-2 0  9999,2 61597  87.8806  94.3730 0002260  71.1380 288.9993 13.11416025 36262,13.11416025,0.000226,LEO
61598,ONEWEB-0690,2024,109.8,-1.0,+,87.89,Active,0,LEO,USA,UK,Unknown,Unknown,Unknown,1 61598U 24188E   25165.52679346 -.00000424  00000+0 -12326-2 0  9990,2 61598  87.8856  94.3107 0001769 100.6140 259.5187 13.11415441 36441,13.11415441,0.0001769,LEO
61599,ONEWEB-0691,2024,109.81,-1.0,+,87.87,Active,0,LEO,USA,UK,Unknown,Unknown,Unknown,1 61599U 24188F   25165.52173966  .00000430  00000+0  11778-2 0  9993,2 61599  87.8749  94.3471 0001745  72.1861 287.9457 13.11413953 34577,13.11413953,0.0001745,LEO
61600,ONEWEB-0692,2024,109.8,-1.0,+,87.88,Active,0,LEO,USA,UK,Unknown,Unknown,Unknown,1 61600U 24188G   25165.54208161  .00000100  00000+0  24623-3 0  9992,2 61600  87.8835  94.3890 0002947  83.4429 276.7034 13.11417765 36283,13.11417765,0.0002947,LEO
61601,ONEWEB-0693,2024,108.21,-1.0,+,87.96,Active,0,LEO,USA,UK,Unknown,Unknown,Unknown,1 61601U 24188H   25165.58335648  .00036724  00000+0  77458-1 0  9991,2 61601  87.9587  79.1204 0003308 134.4034  57.4128 13.30734668  6099,13.30734668,0.0003308,LEO
61602,ONEWEB-0695,2024,109.81,-1.0,+,87.88,Active,0,LEO,USA,UK,Unknown,Unknown,Unknown,1 61602U 24188J   25165.51831968 -.00000478  00000+0 -13858-2 0  9995,2 61602  87.8842  94.3774 0002575  74.3230 285.8182 13.11414688 36275,13.11414688,0.0002575,LEO
61603,ONEWEB-0697,2024,109.8,-1.0,+,87.88,Active,0,LEO,USA,UK,Unknown,Unknown,Unknown,1 61603U 24188K   25165.32165762  .00000572  00000+0  15787-2 0  9993,2 61603  87.8820  94.4187 0002858  85.2377 274.9077 13.11420791 36238,13.11420791,0.0002858,LEO
61604,ONEWEB-0698,2024,109.8,-1.0,+,87.88,Active,0,LEO,USA,UK,Unknown,Unknown,Unknown,1 61604U 24188L   25165.29960218 -.00000290  00000+0 -85409-3 0  9997,2 61604  87.8831  94.4311 0002641 101.2715 258.8710 13.11416396 36258,13.11416396,0.0002641,LEO
61605,ONEWEB-0699,2024,109.89,-1.0,+,87.88,Active,0,LEO,USA,UK,Unknown,Unknown,Unknown,1 61605U 24188M   25165.32507685 -.00000529  00000+0 -15529-2 0  9997,2 61605  87.8816 109.6082 0002286  92.0145 268.1244 13.10370714 35139,13.10370714,0.0002286,LEO
61606,ONEWEB-0700,2024,109.89,-1.0,+,87.87,Active,0,LEO,USA,UK,Unknown,Unknown,Unknown,1 61606U 24188N   25165.55581002 -.00000486  00000+0 -14273-2 0  9995,2 61606  87.8744 109.4827 0002715  74.4819 285.6608 13.10369628 35156,13.10369628,0.0002715,LEO
61607,ONEWEB-0701,2024,109.89,-1.0,+,87.88,Active,0,LEO,USA,UK,Unknown,Unknown,Unknown,1 61607U 24188P   25165.57240887 -.00000562  00000+0 -16461-2 0  9997,2 61607  87.8824 109.5654 0002875  86.9690 273.1767 13.10374978 35160,13.10374978,0.0002875,LEO
61608,ONEWEB-0702,2024,109.81,-1.0,+,87.88,Active,0,LEO,USA,UK,Unknown,Unknown,Unknown,1 61608U 24188Q   25165.49799462  .00000274  00000+0  73632-3 0  9999,2 61608  87.8762  94.3771 0002945  79.1165 281.0294 13.11414224 36290,13.11414224,0.0002945,LEO
61609,ONEWEB-0704,2024,109.89,-1.0,+,87.88,Active,0,LEO,USA,UK,Unknown,Unknown,Unknown,1 61609U 24188R   25165.56079258 -.00000664  00000+0 -19392-2 0  9999,2 61609  87.8845 109.4973 0003092  78.4758 281.6717 13.10371629 35148,13.10371629,0.0003092,LEO
61610,ONEWEB-0705,2024,109.89,-1.0,+,87.88,Active,0,LEO,USA,UK,Unknown,Unknown,Unknown,1 61610U 24188S   25165.56576726 -.00000516  00000+0 -15148-2 0  9994,2 61610  87.8807 109.5550 0002778  57.2362 302.9033 13.10367883 27311,13.10367883,0.0002778,LEO
61611,ONEWEB-0706,2024,109.89,-1.0,+,87.88,Active,0,LEO,USA,UK,Unknown,Unknown,Unknown,1 61611U 24188T   25165.54502665  .00000032  00000+0  56121-4 0  9993,2 61611  87.8831 109.5758 0002440  76.6559 283.4840 13.10371630 35232,13.1037163,0.000244,LEO
61612,ONEWEB-0707,2024,109.89,-1.0,+,87.88,Active,0,LEO,USA,UK,Unknown,Unknown,Unknown,1 61612U 24188U   25165.55747194 -.00000518  00000+0 -15206-2 0  9991,2 61612  87.8814 109.5464 0002656  77.1057 283.0367 13.10372079 35177,13.10372079,0.0002656,LEO
61613,ONEWEB-0708,2024,109.89,-1.0,+,87.89,Active,0,LEO,USA,UK,Unknown,Unknown,Unknown,1 61613U 24188V   25165.57572692 -.00000430  00000+0 -12682-2 0  9991,2 61613  87.8877 109.5486 0002622  66.1161 294.0241 13.10375420 35152,13.1037542,0.0002622,LEO
61614,OBJECT A,2024,95.94,-1.0,+,97.52,Active,0,LEO,PRC,China,Unknown,Unknown,Unknown,1 61614U 24189A   25165.85991374  .00003579  00000+0  28551-3 0  9994,2 61614  97.5200 191.7986 0002065  97.9049 262.2410 15.00912244 35389,15.00912244,0.0002065,LEO
61621,STARLINK-32302,2024,94.27,-1.0,+,43.0,Active,0,LEO,USA,USA,Unknown,Unknown,Unknown,1 61621U 24191A   25165.63285069 -.00001295  00000+0 -37551-4 0  9994,2 61621  43.0001 228.0814 0001477 266.3860  93.6823 15.27574656 37303,15.27574656,0.0001477,LEO
61622,STARLINK-32364,2024,94.27,-1.0,+,43.0,Active,0,LEO,USA,USA,Unknown,Unknown,Unknown,1 61622U 24191B   25165.57774921 -.00002485  00000+0 -80865-4 0  9996,2 61622  43.0017 228.5339 0001430 265.8954  94.1734 15.27562576 36534,15.27562576,0.000143,LEO
61623,STARLINK-32331,2024,94.27,-1.0,+,43.0,Active,0,LEO,USA,USA,Unknown,Unknown,Unknown,1 61623U 24191C   25165.45933380 -.00000804  00000+0 -19679-4 0  9998,2 61623  43.0025 232.8315 0002038 290.1976  69.8656 15.27580384 37121,15.27580384,0.0002038,LEO
61624,STARLINK-32398,2024,94.27,-1.0,+,42.99,Active,0,LEO,USA,USA,Unknown,Unknown,Unknown,1 61624U 24191D   25165.52392949 -.00001747  00000+0 -54008-4 0  9999,2 61624  42.9969 228.9858 0001133 271.6514  88.4208 15.27569264 37227,15.27569264,0.0001133,LEO
61625,STARLINK-32365,2024,94.27,-1.0,+,43.0,Active,0,LEO,USA,USA,Unknown,Unknown,Unknown,1 61625U 24191E   25165.17773431 -.00001873  00000+0 -58590-4 0  9990,2 61625  42.9983 230.6845 0000823 238.3406 121.7365 15.27558407 36473,15.27558407,8.23e-05,LEO
61626,STARLINK-32333,2024,94.27,-1.0,+,43.0,Active,0,LEO,USA,USA,Unknown,Unknown,Unknown,1 61626U 24191F   25165.86323832 -.00002712  00000+0 -89137-4 0  9997,2 61626  43.0025 230.6992 0001715 269.7760  90.2895 15.27552388 37233,15.27552388,0.0001715,LEO
61627,STARLINK-32399,2024,93.46,-1.0,+,43.0,Active,0,LEO,USA,USA,Unknown,Unknown,Unknown,1 61627U 24191G   25165.50900609  .00000827  00000+0  27069-4 0  9991,2 61627  43.0002 222.8192 0001052 283.8747  76.1993 15.40693334 36592,15.40693334,0.0001052,LEO
61628,STARLINK-32421,2024,94.27,-1.0,+,43.0,Active,0,LEO,USA,USA,Unknown,Unknown,Unknown,1 61628U 24191H   25165.85727208  .00000372  00000+0  23030-4 0  9991,2 61628  42.9954 227.1864 0001685 279.9050  80.1611 15.27580630 37284,15.2758063,0.0001685,LEO
61629,STARLINK-32403,2024,94.27,-1.0,+,43.0,Active,0,LEO,USA,USA,Unknown,Unknown,Unknown,1 61629U 24191J   25165.45468250 -.00000623  00000+0 -13114-4 0  9990,2 61629  42.9977 229.3257 0001897 274.9043  85.1592 15.27574440 36512,15.2757444,0.0001897,LEO
61630,STARLINK-32390,2024,94.27,-1.0,+,43.0,Active,0,LEO,USA,USA,Unknown,Unknown,Unknown,1 61630U 24191K   25165.47266702 -.00001362  00000+0 -40003-4 0  9990,2 61630  42.9962 229.4608 0001158 268.2028  91.8691 15.27574454 36517,15.27574454,0.0001158,LEO
61631,STARLINK-32348,2024,94.27,-1.0,+,43.0,Active,0,LEO,USA,USA,Unknown,Unknown,Unknown,1 61631U 24191L   25165.46317531  .00004266  00000+0  16432-3 0  9999,2 61631  42.9995 232.8567 0000675 248.7362 111.3417 15.27605369 36472,15.27605369,6.75e-05,LEO
61632,STARLINK-32455,2024,94.27,-1.0,+,43.0,Active,0,LEO,USA,USA,Unknown,Unknown,Unknown,1 61632U 24191M   25165.47860834  .00001176  00000+0  52246-4 0  9991,2 61632  43.0013 232.9733 0000767 250.0834 109.9935 15.27567969 36475,15.27567969,7.67e-05,LEO
61633,STARLINK-32396,2024,94.27,-1.0,+,43.0,Active,0,LEO,USA,USA,Unknown,Unknown,Unknown,1 61633U 24191N   25165.46704544  .00000287  00000+0  19960-4 0  9994,2 61633  43.0015 232.8847 0002009 277.5346  82.5277 15.27578623 36470,15.27578623,0.0002009,LEO
61634,STARLINK-32355,2024,94.27,-1.0,+,43.0,Active,0,LEO,USA,USA,Unknown,Unknown,Unknown,1 61634U 24191P   25165.48118695 -.00001626  00000+0 -49598-4 0  9993,2 61634  42.9978 232.9925 0001430 267.2639  92.8048 15.27576992 36470,15.27576992,0.000143,LEO
61635,STARLINK-32370,2024,94.27,-1.0,+,43.0,Active,0,LEO,USA,USA,Unknown,Unknown,Unknown,1 61635U 24191Q   25165.49822129 -.00000825  00000+0 -20458-4 0  9993,2 61635  43.0001 228.7887 0001132 250.0487 110.0243 15.27577405 36526,15.27577405,0.0001132,LEO
61636,STARLINK-32405,2024,94.27,-1.0,+,43.0,Active,0,LEO,USA,USA,Unknown,Unknown,Unknown,1 61636U 24191R   25165.55041562 -.00000215  00000+0  17211-5 0  9991,2 61636  43.0006 232.6497 0001090 260.7222  99.3506 15.27580478 36481,15.27580478,0.000109,LEO
61637,STARLINK-32419,2024,94.27,-1.0,+,43.0,Active,0,LEO,USA,USA,Unknown,Unknown,Unknown,1 61637U 24191S   25165.46880722 -.00000116  00000+0  52908-5 0  9993,2 61637  42.9973 229.4305 0000978 262.7477  97.3263 15.27579732 36516,15.27579732,9.78e-05,LEO
